     2.100          NAVIGATION                              RINEX VERSION / TYPE
fic2rin                                 10/21/2009 01:15:47 PGM / RUN BY / DATE
                                                            END OF HEADER
24 09 10 20 18  0  0.0  .230052974075D-03  .295585778076D-11  .000000000000D+00
     .106000000000D+03  .450000000000D+02  .460340603605D-08 -.173470691881D+01
     .226683914661D-05  .635710882489D-02  .113435089588D-04  .515367533684D+04
     .237600000000D+06 -.175088644028D-06 -.297774387572D+01 -.819563865662D-07
     .950521946060D+00  .155062500000D+03 -.600696447978D+00 -.798461830569D-08
    -.408945605655D-09  .100000000000D+01  .155400000000D+04  .000000000000D+00
     .340000000000D+01  .630000000000D+02 -.139698386192D-08  .106000000000D+03
     .230406000000D+06  .400000000000D+01
25 09 10 20 18  0  0.0  .638179481030D-03  .135287336889D-10  .000000000000D+00
     .580000000000D+02 -.113843750000D+03  .397445126613D-08 -.116578277667D+01
    -.584684312344D-05  .112495278008D-01  .993348658085D-05  .515364696121D+04
     .237600000000D+06 -.201165676117D-06  .203788774792D-01  .502914190292D-07
     .971667549145D+00  .196031250000D+03 -.121494567918D+01 -.792283001767D-08
     .964325882329D-10  .100000000000D+01  .155400000000D+04  .000000000000D+00
     .240000000000D+01  .000000000000D+00 -.745058059692D-08  .580000000000D+02
     .230406000000D+06  .400000000000D+01
26 09 10 20 18  0  0.0  .730156898499D-05 -.147792889038D-11  .000000000000D+00
     .280000000000D+02 -.572500000000D+02  .386301805306D-08  .110979452454D-01
    -.284984707832D-05  .196705516428D-01  .294670462608D-05  .515361188316D+04
     .237600000000D+06 -.128522515297D-06 -.873997678563D+00  .298023223877D-06
     .991935876831D+00  .339906250000D+03  .103559195924D+01 -.829391690350D-08
    -.186079179516D-09  .100000000000D+01  .155400000000D+04  .000000000000D+00
     .240000000000D+01  .000000000000D+00 -.605359673500D-08  .280000000000D+02
     .230406000000D+06  .400000000000D+01
27 09 10 20 18  0  0.0  .929888337851D-04  .329691829393D-11  .000000000000D+00
     .000000000000D+00 -.114031250000D+03  .375265631320D-08  .291879362555D+01
    -.599958002567D-05  .214377911761D-01  .921450555325D-05  .515373361969D+04
     .237600000000D+06  .325962901115D-06  .572397595343D-01 -.707805156708D-07
     .976457283377D+00  .206781250000D+03 -.153261950604D+01 -.731709050048D-08
     .571452374714D-11  .100000000000D+01  .155400000000D+04  .000000000000D+00
     .340000000000D+01  .000000000000D+00 -.419095158577D-08  .256000000000D+03
     .230406000000D+06  .400000000000D+01
28 09 10 20 18  0  0.0 -.258283689618D-04  .113686837722D-12  .000000000000D+00
     .520000000000D+02  .578125000000D+01  .443839916285D-08 -.238446637686D+01
     .162050127983D-06  .152006238932D-01  .772252678871D-05  .515365020180D+04
     .237600000000D+06  .238418579102D-06  .119222050786D+01 -.186264514923D-08
     .967663202965D+00  .229562500000D+03 -.201451572981D+01 -.763353225297D-08
     .755031450091D-09  .100000000000D+01  .155400000000D+04  .000000000000D+00
     .340000000000D+01  .000000000000D+00 -.102445483208D-07  .520000000000D+02
     .230406000000D+06  .400000000000D+01
29 09 10 20 18  0  0.0  .676144845784D-04  .329691829393D-11  .000000000000D+00
     .620000000000D+02 -.270625000000D+02  .506913972145D-08 -.332643558888D+00
    -.133737921715D-05  .296147109475D-02  .592321157455D-05  .515358130264D+04
     .237600000000D+06  .670552253723D-07  .223558720667D+01 -.409781932831D-07
     .959994391825D+00  .265156250000D+03 -.126928120986D+01 -.831106047474D-08
    -.263939565571D-09  .100000000000D+01  .155400000000D+04  .000000000000D+00
     .240000000000D+01  .000000000000D+00 -.884756445885D-08  .620000000000D+02
     .230406000000D+06  .400000000000D+01
30 09 10 20 18  0  0.0  .186440534890D-03  .306954461848D-11  .000000000000D+00
     .800000000000D+02  .156562500000D+02  .479662837025D-08 -.190907520266D+01
     .996515154839D-06  .119286127156D-01  .798888504505D-05  .515365764427D+04
     .237600000000D+06  .189989805222D-06  .111693454785D+01  .121071934700D-06
     .953291403591D+00  .219218750000D+03  .146427311884D+01 -.795318842508D-08
     .653598653579D-09  .100000000000D+01  .155400000000D+04  .000000000000D+00
     .340000000000D+01  .000000000000D+00 -.791624188423D-08  .800000000000D+02
     .230406000000D+06  .400000000000D+01
31 09 10 20 18  0  0.0 -.626058317721D-04  .568434188608D-12  .000000000000D+00
     .280000000000D+02 -.895937500000D+02  .390409119250D-08  .394088722211D+00
    -.476837158203D-05  .721831468400D-02  .102277845144D-04  .515354437447D+04
     .237600000000D+06 -.409781932831D-07  .113110899226D+00 -.100582838058D-06
     .974876999769D+00  .186906250000D+03 -.114857934283D+01 -.782604027170D-08
     .828605943335D-10  .100000000000D+01  .155400000000D+04  .000000000000D+00
     .240000000000D+01  .000000000000D+00 -.130385160446D-07  .280000000000D+02
     .230406000000D+06  .400000000000D+01
32 09 10 20 18  0  0.0  .174128450453D-03 -.738964445191D-11  .000000000000D+00
     .800000000000D+02  .113468750000D+03  .457911931013D-08  .128874363792D+01
     .549107789993D-05  .132662835531D-01  .358372926712D-05  .515368999863D+04
     .237600000000D+06  .266358256340D-06 -.189576432025D+01 -.253319740295D-06
     .961835986250D+00  .307062500000D+03 -.109705577915D+01 -.827141596625D-08
     .138934358602D-09  .100000000000D+01  .155400000000D+04  .000000000000D+00
     .340000000000D+01  .000000000000D+00 -.325962901115D-08  .800000000000D+02
     .230406000000D+06  .400000000000D+01
20 09 10 20 17 59 44.0  .695376656950D-04 -.909494701773D-12  .000000000000D+00
     .900000000000D+01  .131375000000D+03  .496127808572D-08 -.142928664007D+01
     .668689608574D-05  .389642419759D-02  .473484396935D-05  .515375914383D+04
     .237584000000D+06  .670552253723D-07 -.200845997749D+01  .987201929092D-07
     .939926377124D+00  .278468750000D+03  .130196250863D+01 -.843570852398D-08
     .101075638777D-09  .100000000000D+01  .155400000000D+04  .000000000000D+00
     .240000000000D+01  .000000000000D+00 -.745058059692D-08  .900000000000D+01
     .232416000000D+06  .400000000000D+01
10 09 10 20 17 59 44.0 -.263396650553D-04 -.909494701773D-12  .000000000000D+00
     .330000000000D+02  .123843750000D+03  .457304762865D-08 -.291673781896D+01
     .633299350739D-05  .864335231017D-02  .501796603203D-05  .515339143562D+04
     .237584000000D+06 -.149011611938D-07 -.195776698849D+01 -.121071934700D-06
     .956134640468D+00  .280406250000D+03  .616085620565D+00 -.813641034272D-08
     .201079804352D-09  .100000000000D+01  .155400000000D+04  .000000000000D+00
     .240000000000D+01  .000000000000D+00 -.279396772385D-08  .330000000000D+02
     .233166000000D+06  .400000000000D+01
 6 09 10 20 17 59 44.0  .254863873124D-03  .375166564481D-11  .000000000000D+00
     .300000000000D+01 -.201250000000D+02  .561559105477D-08 -.197845724223D+01
    -.810250639915D-06  .577221880667D-02  .548921525478D-05  .515368974113D+04
     .237584000000D+06 -.316649675369D-07  .216005971157D+01  .149011611938D-06
     .933824430244D+00  .258531250000D+03 -.122717760391D+01 -.840392148563D-08
    -.216794744657D-09  .100000000000D+01  .155400000000D+04  .000000000000D+00
     .240000000000D+01  .000000000000D+00 -.512227416039D-08  .300000000000D+01
     .233736000000D+06  .400000000000D+01
30 09 10 20 17 59 44.0  .186450779438D-03  .306954461848D-11  .000000000000D+00
     .170000000000D+02  .156562500000D+02  .479662837025D-08 -.191140931917D+01
     .996515154839D-06  .119286077097D-01  .798888504505D-05  .515365764236D+04
     .237584000000D+06  .189989805222D-06  .111693469560D+01  .121071934700D-06
     .953291400665D+00  .219218750000D+03  .146427344215D+01 -.795318842508D-08
     .653598653579D-09  .100000000000D+01  .155400000000D+04  .000000000000D+00
     .240000000000D+01  .000000000000D+00 -.791624188423D-08  .170000000000D+02
     .235536000000D+06  .400000000000D+01
32 09 10 20 17 59 44.0  .174126587808D-03 -.738964445191D-11  .000000000000D+00
     .500000000000D+01  .113468750000D+03  .457911931013D-08  .128640984470D+01
     .549107789993D-05  .132662843680D-01  .358372926712D-05  .515369000244D+04
     .237584000000D+06  .266358256340D-06 -.189576420029D+01 -.253319740295D-06
     .961835970157D+00  .307062500000D+03 -.109705576599D+01 -.827141596625D-08
     .138577200868D-09  .100000000000D+01  .155400000000D+04  .000000000000D+00
     .240000000000D+01  .000000000000D+00 -.325962901115D-08  .500000000000D+01
     .237006000000D+06  .400000000000D+01
18 09 10 20 17 59 44.0  .216006301343D-04  .272848410532D-11  .000000000000D+00
     .370000000000D+02  .110125000000D+03  .486555981295D-08 -.161029032680D+01
     .575557351112D-05  .109192599775D-01  .429339706898D-05  .515364253426D+04
     .237584000000D+06  .217929482460D-06 -.195454842388D+01 -.134110450745D-06
     .940154501643D+00  .288500000000D+03 -.236543450900D+01 -.827534470132D-08
     .170007081477D-09  .100000000000D+01  .155400000000D+04  .000000000000D+00
     .240000000000D+01  .000000000000D+00 -.107102096081D-07  .370000000000D+02
     .237096000000D+06  .400000000000D+01
 6 09 10 20 19 59 44.0  .254891347140D-03  .375166564481D-11  .000000000000D+00
     .130000000000D+02 -.210000000000D+02  .563880630749D-08 -.928302210005D+00
    -.118091702461D-05  .577218586113D-02  .576488673687D-05  .515368946648D+04
     .244784000000D+06 -.987201929092D-07  .215999783891D+01 -.614672899246D-07
     .933822294384D+00  .258156250000D+03 -.122715312198D+01 -.860821570959D-08
    -.141434462742D-09  .100000000000D+01  .155400000000D+04  .000000000000D+00
     .240000000000D+01  .000000000000D+00 -.512227416039D-08  .130000000000D+02
     .237606000000D+06  .400000000000D+01
